NORAD_CAT_ID,OBJECT_NAME,OBJECT_TYPE,EPOCH,MEAN_MOTION,ECCENTRICITY,INCLINATION,RA_OF_ASC_NODE,ARG_OF_PERICENTER,MEAN_ANOMALY,BSTAR,MEAN_MOTION_DOT,MEAN_MOTION_DDOT,TLE_LINE0,TLE_LINE1,TLE_LINE2,SEMIMAJOR_AXIS,PERIOD,APOGEE,PERIGEE,DECAYED
52358.0,STARLINK-3837,PAYLOAD,2022-12-11 08:33:58,15.08848119,0.0003557,53.2171,115.8045,50.9429,309.1879,0.00073046,0.00011359,0.0,0 STARLINK-3837,1 52358U 22045AD  22345.35692233  .00011359  00000-0  73046-3 0  9997,2 52358  53.2171 115.8045 0003557  50.9429 309.1879 15.08848119 36996,6917.856,95.437,542.181,537.26,0.0
52358.0,STARLINK-3837,PAYLOAD,2022-12-11 13:20:07,15.08857835,0.0003591,53.2171,114.9126,51.2035,308.9277,0.00086246,0.00013472,0.0,0 STARLINK-3837,1 52358U 22045AD  22345.55563966  .00013472  00000-0  86246-3 0  9993,2 52358  53.2171 114.9126 0003591  51.2035 308.9277 15.08857835 37020,6917.826,95.436,542.175,537.207,0.0
52358.0,STARLINK-3837,PAYLOAD,2022-12-11 18:06:16,15.0885378,0.000353,53.2174,114.0216,48.1546,311.9747,0.00050486,7.759e-05,0.0,0 STARLINK-3837,1 52358U 22045AD  22345.75435867  .00007759  00000-0  50486-3 0  9991,2 52358  53.2174 114.0216 0003530  48.1546 311.9747 15.08853780 37053,6917.8380000000025,95.437,542.145,537.261,0.0
52358.0,STARLINK-3837,PAYLOAD,2022-12-11 21:17:02,15.08847889,0.0003512,53.2169,113.4265,50.5548,309.5755,0.00029847,4.466e-05,0.0,0 STARLINK-3837,1 52358U 22045AD  22345.88683915  .00004466  00000-0  29847-3 0  9993,2 52358  53.2169 113.4265 0003512  50.5548 309.5755 15.08847889 37070,6917.856,95.437,542.151,537.2919999999998,0.0
52358.0,STARLINK-3837,PAYLOAD,2022-12-12 11:35:31,15.08846572,0.0003543,53.217,110.75,53.7341,306.3978,0.00016916,2.405e-05,0.0,0 STARLINK-3837,1 52358U 22045AD  22346.48299787  .00002405  00000-0  16916-3 0  9994,2 52358  53.2170 110.7500 0003543  53.7341 306.3978 15.08846572 37164,6917.86,95.437,542.1759999999998,537.274,0.0
52358.0,STARLINK-3837,PAYLOAD,2022-12-12 17:57:03,15.08845471,0.0003484,53.2177,109.5602,54.9636,305.1683,0.00019169,2.764e-05,0.0,0 STARLINK-3837,1 52358U 22045AD  22346.74795794  .00002764  00000-0  19169-3 0  9993,2 52358  53.2177 109.5602 0003484  54.9636 305.1683 15.08845471 37206,6917.864000000001,95.437,542.139,537.318,0.0
52358.0,STARLINK-3837,PAYLOAD,2022-12-12 19:32:26,15.08847296,0.0003491,53.2178,109.2628,52.5582,307.5727,0.00018677,2.686e-05,0.0,0 STARLINK-3837,1 52358U 22045AD  22346.81419655  .00002686  00000-0  18677-3 0  9996,2 52358  53.2178 109.2628 0003491  52.5582 307.5727 15.08847296 37217,6917.858,95.437,542.138,537.308,0.0
52358.0,STARLINK-3837,PAYLOAD,2022-12-13 08:15:31,15.08846335,0.0003497,53.2179,106.8838,53.5338,306.5976,7.052399999999999e-05,8.34e-06,0.0,0 STARLINK-3837,1 52358U 22045AD  22347.34411547  .00000834  00000-0  70524-4 0  9990,2 52358  53.2179 106.8838 0003497  53.5338 306.5976 15.08846335 37296,6917.861,95.437,542.145,537.307,0.0
52358.0,STARLINK-3837,PAYLOAD,2022-12-13 19:23:13,15.08844576,0.0003175,53.2174,104.8012,56.7949,303.3347,-2.1126e-05,-6.25e-06,0.0,0 STARLINK-3837,1 52358U 22045AD  22347.80779385 -.00000625  00000-0 -21126-4 0  9992,2 52358  53.2174 104.8012 0003175  56.7949 303.3347 15.08844576 37369,6917.866,95.437,541.928,537.535,0.0
52358.0,STARLINK-3837,PAYLOAD,2022-12-14 11:17:04,15.08840831,0.0003195,53.2183,101.8282,53.0845,307.0439,3.6978e-05,3e-06,0.0,0 STARLINK-3837,1 52358U 22045AD  22348.47019661  .00000300  00000-0  36978-4 0  9999,2 52358  53.2183 101.8282 0003195  53.0845 307.0439 15.08840831 37466,6917.878000000002,95.438,541.953,537.533,0.0
52358.0,STARLINK-3837,PAYLOAD,2022-12-14 19:14:00,15.08843954,0.0003286,53.2187,100.3427,50.8723,309.2561,6.2628e-05,7.08e-06,0.0,0 STARLINK-3837,1 52358U 22045AD  22348.80139390  .00000708  00000-0  62628-4 0  9991,2 52358  53.2187 100.3427 0003286  50.8723 309.2561 15.08843954 37511,6917.868,95.437,542.007,537.46,0.0
52358.0,STARLINK-3837,PAYLOAD,2022-12-15 07:57:05,15.08842317,0.0003304,53.2181,97.9646,51.6692,308.4596,6.1111e-05,6.84e-06,0.0,0 STARLINK-3837,1 52358U 22045AD  22349.33131463  .00000684  00000-0  61111-4 0  9992,2 52358  53.2181  97.9646 0003304  51.6692 308.4596 15.08842317 37593,6917.873000000001,95.437,542.024,537.453,0.0
52358.0,STARLINK-3837,PAYLOAD,2022-12-15 14:18:38,15.08839039,0.0003386,53.2184,96.7739,54.6885,305.4424,7.5236e-06,-1.69e-06,0.0,0 STARLINK-3837,1 52358U 22045AD  22349.59627771 -.00000169  00000-0  75236-5 0  9995,2 52358  53.2184  96.7739 0003386  54.6885 305.4424 15.08839039 37632,6917.8830000000025,95.438,542.091,537.406,0.0
52358.0,STARLINK-3837,PAYLOAD,2022-12-15 19:04:48,15.08834953,0.0003138,53.2184,95.8826,48.2501,311.8759,-1.3204e-05,-4.99e-06,0.0,0 STARLINK-3837,1 52358U 22045AD  22349.79500096 -.00000499  00000-0 -13204-4 0  9990,2 52358  53.2184  95.8826 0003138  48.2501 311.8759 15.08834953 37663,6917.896,95.438,541.932,537.59,0.0
52358.0,STARLINK-3837,PAYLOAD,2022-12-15 23:50:57,15.08836326,0.0003173,53.2186,94.9904,48.6427,311.4838,7.175600000000001e-05,8.53e-06,0.0,0 STARLINK-3837,1 52358U 22045AD  22349.99371882  .00000853  00000-0  71756-4 0  9999,2 52358  53.2186  94.9904 0003173  48.6427 311.4838 15.08836326 37695,6917.892,95.438,541.952,537.562,0.0
52358.0,STARLINK-3837,PAYLOAD,2022-12-16 14:09:25,15.08837036,0.0003143999999999,53.2184,92.3141,49.6123,310.5143,8.824e-05,1.116e-05,0.0,0 STARLINK-3837,1 52358U 22045AD  22350.58987989  .00001116  00000-0  88240-4 0  9996,2 52358  53.2184  92.3141 0003144  49.6123 310.5143 15.08837036 37788,6917.889,95.438,541.929,537.5790000000002,0.0
52358.0,STARLINK-3837,PAYLOAD,2022-12-16 17:20:11,15.0883611,0.0003151,53.2174,91.7197,47.7227,312.4032,5.7385e-05,6.25e-06,0.0,0 STARLINK-3837,1 52358U 22045AD  22350.72235887  .00000625  00000-0  57385-4 0  9995,2 52358  53.2174  91.7197 0003151  47.7227 312.4032 15.08836110 37806,6917.892,95.438,541.937,537.577,0.0
52358.0,STARLINK-3837,PAYLOAD,2022-12-16 23:41:44,15.0882831,0.0003167,53.2174,90.5303,47.94,312.1861,-6.0906e-05,-1.258e-05,0.0,0 STARLINK-3837,1 52358U 22045AD  22350.98732418 -.00001258  00000-0 -60906-4 0  9993,2 52358  53.2174  90.5303 0003167  47.9400 312.1861 15.08828310 37848,6917.916,95.438,541.972,537.59,0.0
52358.0,STARLINK-3837,PAYLOAD,2022-12-17 12:24:49,15.08836259,0.0002981,53.2184,88.1511,45.547,314.5766,2.2301e-06,-2.53e-06,0.0,0 STARLINK-3837,1 52358U 22045AD  22351.51724140 -.00000253  00000-0  22301-5 0  9997,2 52358  53.2184  88.1511 0002981  45.5470 314.5766 15.08836259 37927,6917.892,95.438,541.819,537.695,0.0
52358.0,STARLINK-3837,PAYLOAD,2022-12-17 15:35:36,15.0883378,0.0003168,53.2183,87.556,47.2366,312.8892,-4.2739e-05,-9.69e-06,0.0,0 STARLINK-3837,1 52358U 22045AD  22351.64972390 -.00000969  00000-0 -42739-4 0  9994,2 52358  53.2183  87.5560 0003168  47.2366 312.8892 15.08833780 37943,6917.899,95.438,541.956,537.573,0.0
52358.0,STARLINK-3837,PAYLOAD,2022-12-18 04:18:41,15.08829777,0.0003268,53.2168,85.1784,44.8202,315.3054,8.7815e-06,-1.49e-06,0.0,0 STARLINK-3837,1 52358U 22045AD  22352.17964997 -.00000149  00000-0  87815-5 0  9991,2 52358  53.2168  85.1784 0003268  44.8202 315.3054 15.08829777 38020,6917.9119999999975,95.438,542.0369999999998,537.516,0.0
52358.0,STARLINK-3837,PAYLOAD,2022-12-18 12:15:38,15.08825596,0.0003081,53.2189,83.6915,45.8648,314.2597,2.2164e-06,-2.53e-06,0.0,0 STARLINK-3837,1 52358U 22045AD  22352.51085946 -.00000253  00000-0  22164-5 0  9999,2 52358  53.2189  83.6915 0003081  45.8648 314.2597 15.08825596 38070,6917.924,95.438,541.9209999999998,537.658,0.0
52358.0,STARLINK-3837,PAYLOAD,2022-12-18 15:26:24,15.08826827,0.000301,53.2187,83.0961,46.1518,313.9723,9.7476e-06,-1.34e-06,0.0,0 STARLINK-3837,1 52358U 22045AD  22352.64333920 -.00000134  00000-0  97476-5 0  9997,2 52358  53.2187  83.0961 0003010  46.1518 313.9723 15.08826827 38092,6917.920999999999,95.438,541.868,537.703,0.0
52358.0,STARLINK-3837,PAYLOAD,2022-12-19 00:58:42,15.08834385,0.0003158,53.2191,81.3122,46.0902,314.035,0.00015313,2.149e-05,0.0,0 STARLINK-3837,1 52358U 22045AD  22353.04077414  .00002149  00000-0  15313-3 0  9990,2 52358  53.2191  81.3122 0003158  46.0902 314.0350 15.08834385 38159,6917.898,95.438,541.947,537.578,0.0
52358.0,STARLINK-3837,PAYLOAD,2022-12-19 07:20:15,15.08847441,0.0003046,53.2181,80.1223,45.2843,314.8397,0.00034041,5.135e-05,0.0,0 STARLINK-3837,1 52358U 22045AD  22353.30572996  .00005135  00000-0  34041-3 0  9991,2 52358  53.2181  80.1223 0003046  45.2843 314.8397 15.08847441 38198,6917.858,95.437,541.83,537.615,0.0
52358.0,STARLINK-3837,PAYLOAD,2022-12-19 13:41:47,15.08859892,0.0003104,53.2176,78.9328,44.1671,315.9569,0.0010428,0.00016357,0.0,0 STARLINK-3837,1 52358U 22045AD  22353.57069103  .00016357  00000-0  10428-2 0  9991,2 52358  53.2176  78.9328 0003104  44.1671 315.9569 15.08859892 38236,6917.82,95.436,541.832,537.5369999999998,0.0
52358.0,STARLINK-3837,PAYLOAD,2022-12-20 10:21:47,15.08871252,0.0003181,53.2178,75.067,46.2802,313.8453,0.00055188,8.514e-05,0.0,0 STARLINK-3837,1 52358U 22045AD  22354.43179762  .00008514  00000-0  55188-3 0  9999,2 52358  53.2178  75.0670 0003181  46.2802 313.8453 15.08871252 38367,6917.785,95.436,541.85,537.4490000000002,0.0
52358.0,STARLINK-3837,PAYLOAD,2022-12-20 15:07:56,15.08867232,0.0003064,53.218,74.1766,38.6003,321.5207,0.000422,6.439e-05,0.0,0 STARLINK-3837,1 52358U 22045AD  22354.63051494  .00006439  00000-0  42200-3 0  9997,2 52358  53.2180  74.1766 0003064  38.6003 321.5207 15.08867232 38393,6917.797,95.436,541.7819999999998,537.543,0.0
52358.0,STARLINK-3837,PAYLOAD,2022-12-21 11:47:57,15.08827139,0.0002935,53.2184,70.3083,40.6004,319.5207,-0.00040019,-6.65e-05,0.0,0 STARLINK-3837,1 52358U 22045AD  22355.49163979 -.00006650  00000-0 -40019-3 0  9997,2 52358  53.2184  70.3083 0002935  40.6004 319.5207 15.08827139 38521,6917.92,95.438,541.815,537.754,0.0
